#aV2021  1 13  0  0  0.00000000     288 DD+AD WGS84 FIT  NGA
## 2140 259200.00000000   300.00000000 59227 0.0000000000000
+   32     1  2  3  4  5  6  7  8  9 10 11 12 13 14 15 16 17
+         18 19 20 21 22 23 24 25 26 27 28 29 30 31 32  0  0
+          0  0  0  0  0  0  0  0  0  0  0  0  0  0  0  0  0
+          0  0  0  0  0  0  0  0  0  0  0  0  0  0  0  0  0
+          0  0  0  0  0  0  0  0  0  0  0  0  0  0  0  0  0
++         2  2  2  2  2  2  2  2  2  2  2  2  2  2  2  2  2
++         2  2  2  2  2  2  2  2  2  2  2  2  2  2  2  0  0
++         0  0  0  0  0  0  0  0  0  0  0  0  0  0  0  0  0
++         0  0  0  0  0  0  0  0  0  0  0  0  0  0  0  0  0
++         0  0  0  0  0  0  0  0  0  0  0  0  0  0  0  0  0
%c cc cc ccc ccc cccc cccc cccc cccc ccccc ccccc ccccc ccccc
%c cc cc ccc ccc cccc cccc cccc cccc ccccc ccccc ccccc ccccc
%f  0.0000000  0.000000000  0.00000000000  0.000000000000000
%f  0.0000000  0.000000000  0.00000000000  0.000000000000000
%i    0    0    0    0      0      0      0      0         0
%i    0    0    0    0      0      0      0      0         0
/*      NGA, ST. LOUIS,MO.                                  
/*   EPHEMERIS COMPUTED FROM 2 DAYS OF DATA                 
/*   EPOCHA v5 SMOOTHER                                     
/*   G2139 IERS2010 SATAF SATAPC                            
*  2021  1 13 12 50  0.00000000
P  1 -13658.516235  17753.453255  13764.533972    780.884888                    
V  1   2263.955659 -17941.359255  25277.620194     -0.063868                    
P  2  14153.535988   5262.697054 -21192.284489   -565.509157                    
V  2  -4702.863499  28096.074165   3730.321170     -0.042093                    
P  3 -21072.990282  13177.884721  -9303.968548    -55.203410                    
V  3 -11907.341872   1157.732166  28955.143267     -0.098586                    
P  4 -12751.738958   8674.676709 -21623.699843   -172.382658                    
V  4 -19296.948491 -19544.461066   3489.026419     -0.029725                    
P  5  24965.894166  -1667.107882  -9332.311211    -30.877754                    
V  5 -10122.430514   6182.284535 -28469.538340     -0.009913                    
P  6   7159.914495  19148.487920 -16867.086800     -4.602653                    
V  6  -6193.532782  20648.180086  20776.248214      0.001816                    
P  7  -5868.441935  25626.857597    328.953751     20.005000                    
V  7  -3446.588620   -789.014619 -31871.645521      0.144096                    
P  8 -18321.100961   1392.419193  19294.453219     -6.437855                    
V  8 -17421.792901 -17061.822803 -15032.232445     -0.013384                    
P  9  -1176.696908  17794.538740 -19738.935938   -312.282088                    
V  9 -19424.904020 -15725.091186 -13081.466680     -0.040337                    
P 10  -6376.586737 -13791.207463  21900.626394    -38.230679                    
V 10  26261.944799  -8235.136663   2211.622678     -0.084935                    
P 11 -13551.790655   9829.293673  20226.536837    -54.189404                    
V 11  -7640.026713 -25742.164766   6865.431882      0.105861                    
P 12  23761.296177  -9941.952249  -6374.264385     13.533956                    
V 12   8126.265650    511.586978  30806.902211     -0.052236                    
P 13  20429.336417   9452.703292  14054.729155     85.448351                    
V 13  10007.637466  15111.036197 -24354.169214      0.041507                    
P 14   3488.940552  14844.306629  21740.042908     84.714556                    
V 14 -26756.856346   6877.178365   -405.966194      0.061868                    
P 15  17982.033123  -4248.735393  18845.416069   -176.617976                    
V 15  18899.909976  15960.063229 -13810.351162      0.025933                    
P 16 -24874.465330  -1664.064750 -10038.062332   -264.476929                    
V 16  11626.166592  -4182.705455 -28328.568950     -0.055594                    
P 17  13042.698243  21724.592105   8407.519457    379.684942                    
V 17  -8296.060663  -5970.771927  29834.730453      0.048775                    
P 18   4784.894671 -25974.732678   2493.246391    340.924034                    
V 18   3370.989727  -2422.533491 -31707.806030      0.028000                    
P 19  17543.871875  20001.904748    -66.594206    -52.472054                    
V 19  -1748.882571   1187.074753  32146.436567      0.050159                    
P 20   6169.992931 -17898.107231  18462.691127    525.183095                    
V 20  22313.614365  -8342.260546 -15761.588239     -0.001710                    
P 21 -15629.594121   9682.291188  19762.518257     86.434766                    
V 21   2261.401703 -23610.333294  14287.170093      0.033506                    
P 22 -24419.199605  10211.614450   -103.624828   -698.943345                    
V 22  -1799.102498  -3388.682338  31248.977550      0.066877                    
P 23   5869.474601 -16557.077749  19885.077592    115.867473                    
V 23  24354.806541  -6976.497932 -13016.288487      0.015983                    
P 24  14750.601297 -13815.062912  16794.295715      3.726951                    
V 24   -973.883361  22136.041264  19191.737522     -0.005305                    
P 25  12978.263348 -16164.713300 -16694.114951     58.914763                    
V 25  20457.564656  -4357.381921  20702.563548      0.076867                    
P 26 -17959.845760  -7625.143531 -18181.124766     29.289253                    
V 26  21097.978974  -9188.609991 -16768.120915      0.056819                    
P 27 -22031.939222 -10598.857741  10660.137559    -55.148359                    
V 27  -8773.353809 -10570.062663 -27887.084876     -0.077517                    
P 28   6674.505283  13948.186260  22146.184829    630.277913                    
V 28 -26109.190461   5815.082466   4500.381637     -0.051320                    
P 29   2943.069421 -16731.275871 -20443.428158   -274.976621                    
V 29  18214.412723  18317.846336 -12430.778366     -0.072457                    
P 30   1764.321025  24205.711251  10575.273396   -368.243498                    
V 30  -6535.962628  12237.539475 -27252.983847     -0.060640                    
P 31  -9089.056571 -16766.478115 -18361.934074    -93.629252                    
V 31   7552.183122 -22168.157323  17031.790249     -0.023178                    
P 32 -15005.841675 -20775.769595   7384.684517     14.056564                    
V 32   8572.209578   4288.304331  29686.957320      0.020363                    
EOF
